NORAD_CAT_ID,OBJECT_NAME,OBJECT_TYPE,EPOCH,MEAN_MOTION,ECCENTRICITY,INCLINATION,RA_OF_ASC_NODE,ARG_OF_PERICENTER,MEAN_ANOMALY,BSTAR,MEAN_MOTION_DOT,MEAN_MOTION_DDOT,TLE_LINE0,TLE_LINE1,TLE_LINE2,SEMIMAJOR_AXIS,PERIOD,APOGEE,PERIGEE,DECAYED
54764.0,STARLINK-5458,PAYLOAD,2024-04-27 16:46:46,15.08856575,0.000136,53.2164,221.1312,111.5414,248.5723,0.00021054,3.066e-05,0.0,0 STARLINK-5458,1 54764U 22175G   24118.69914918  .00003066  00000-0  21054-3 0  9996,2 54764  53.2164 221.1312 0001360 111.5414 248.5723 15.08856575 77115,6917.83,95.437,540.636,538.754,0.0
54764.0,STARLINK-5458,PAYLOAD,2024-04-28 13:26:49,15.08826056,0.0001401,53.2186,217.2717,94.3622,265.753,-0.0001364,-2.457e-05,0.0,0 STARLINK-5458,1 54764U 22175G   24119.56029691 -.00002457  00000-0 -13640-3 0  9995,2 54764  53.2186 217.2717 0001401  94.3622 265.7530 15.08826056 75081,6917.923,95.438,540.757,538.819,0.0
54764.0,STARLINK-5458,PAYLOAD,2024-04-29 13:17:35,15.08846541,0.0001298,53.2177,212.8105,97.9829,262.1311,0.00014609,2.038e-05,0.0,0 STARLINK-5458,1 54764U 22175G   24120.55388122  .00002038  00000-0  14609-3 0  9992,2 54764  53.2177 212.8105 0001298  97.9829 262.1311 15.08846541 75231,6917.86,95.437,540.623,538.827,0.0
54764.0,STARLINK-5458,PAYLOAD,2024-04-30 05:11:27,15.0883811,0.0001346,53.2162,209.8378,87.7608,272.3539,0.00033292,5.014e-05,0.0,0 STARLINK-5458,1 54764U 22175G   24121.21629022  .00005014  00000-0  33292-3 0  9999,2 54764  53.2162 209.8378 0001346  87.7608 272.3539 15.08838110 75338,6917.886,95.438,540.682,538.82,0.0
54764.0,STARLINK-5458,PAYLOAD,2024-04-30 13:08:22,15.08845117,0.000136,53.2163,208.351,86.6852,273.4296,0.00034939,5.278e-05,0.0,0 STARLINK-5458,1 54764U 22175G   24121.54748831  .00005278  00000-0  34939-3 0  9996,2 54764  53.2163 208.3510 0001360  86.6852 273.4296 15.08845117 77548,6917.865,95.437,540.671,538.789,0.0
54764.0,STARLINK-5458,PAYLOAD,2024-04-30 22:40:41,15.08844308,0.0001352,53.2155,206.567,93.3359,266.7788,9.6523e-05,1.249e-05,0.0,0 STARLINK-5458,1 54764U 22175G   24121.94492631  .00001249  00000-0  96523-4 0  9996,2 54764  53.2155 206.5670 0001352  93.3359 266.7788 15.08844308 77603,6917.867,95.437,540.668,538.797,0.0
54764.0,STARLINK-5458,PAYLOAD,2024-05-02 04:53:01,15.08839893,0.0001133,53.2132,200.9146,90.6642,269.448,5.1807e-05,5.37e-06,0.0,0 STARLINK-5458,1 54764U 22175G   24123.20348604  .00000537  00000-0  51807-4 0  9992,2 54764  53.2132 200.9146 0001133  90.6642 269.4480 15.08839893 75639,6917.881,95.438,540.53,538.962,0.0
54764.0,STARLINK-5458,PAYLOAD,2024-05-02 12:49:56,15.08846998,0.0001328,53.2159,199.4274,91.7971,268.3174,5.3099e-05,5.57e-06,0.0,0 STARLINK-5458,1 54764U 22175G   24123.53468499  .00000557  00000-0  53099-4 0  9990,2 54764  53.2159 199.4274 0001328  91.7971 268.3174 15.08846998 77842,6917.859,95.437,540.643,538.805,0.0
54764.0,STARLINK-5458,PAYLOAD,2024-05-03 04:43:47,15.08850041,0.0001372,53.216,196.4542,90.7003,269.4147,0.0001552,2.184e-05,0.0,0 STARLINK-5458,1 54764U 22175G   24124.19707875  .00002184  00000-0  15520-3 0  9991,2 54764  53.2160 196.4542 0001372  90.7003 269.4147 15.08850041 75780,6917.85,95.437,540.664,538.766,0.0
54764.0,STARLINK-5458,PAYLOAD,2024-05-03 11:05:19,15.08856864,0.0001366,53.2146,195.2648,89.856,270.2589,0.00028556,4.262e-05,0.0,0 STARLINK-5458,1 54764U 22175G   24124.46203534  .00004262  00000-0  28556-3 0  9996,2 54764  53.2146 195.2648 0001366  89.8560 270.2589 15.08856864 77981,6917.829,95.436,540.639,538.749,0.0
54764.0,STARLINK-5458,PAYLOAD,2024-05-03 22:13:02,15.08845431,0.0001345,53.2148,193.1842,85.7916,274.323,0.00015008,2.102e-05,0.0,0 STARLINK-5458,1 54764U 22175G   24124.92571994  .00002102  00000-0  15008-3 0  9994,2 54764  53.2148 193.1842 0001345  85.7916 274.3230 15.08845431 78058,6917.864,95.437,540.659,538.798,0.0
54764.0,STARLINK-5458,PAYLOAD,2024-05-04 04:34:35,15.08838974,0.0002366,53.2151,191.9945,90.7548,269.3715,6.8681e-05,8.05e-06,0.0,0 STARLINK-5458,1 54764U 22175G   24125.19068752  .00000805  00000-0  68681-4 0  9991,2 54764  53.2151 191.9945 0002366  90.7548 269.3715 15.08838974 75933,6917.884,95.438,541.385,538.112,0.0
54764.0,STARLINK-5458,PAYLOAD,2024-05-04 10:56:08,15.0882194,0.0001343,53.2153,190.8049,100.8598,259.2545,-0.00026503,-4.501e-05,0.0,0 STARLINK-5458,1 54764U 22175G   24125.45565216 -.00004501  00000-0 -26503-3 0  9992,2 54764  53.2153 190.8049 0001343 100.8598 259.2545 15.08821940 75978,6917.936,95.439,540.73,538.872,0.0
54764.0,STARLINK-5458,PAYLOAD,2024-05-05 10:46:56,15.08831349,0.0001362,53.2167,186.3448,104.7032,255.4111,0.00072921,0.00011334,0.0,0 STARLINK-5458,1 54764U 22175G   24126.44926297  .00011334  00000-0  72921-3 0  9997,2 54764  53.2167 186.3448 0001362 104.7032 255.4111 15.08831349 76122,6917.907,95.438,540.714,538.83,0.0
54764.0,STARLINK-5458,PAYLOAD,2024-05-05 13:57:42,15.08836957,0.0001378,53.2164,185.7497,104.3717,255.7428,0.0008672,0.00013539,0.0,0 STARLINK-5458,1 54764U 22175G   24126.58174349  .00013539  00000-0  86720-3 0  9996,2 54764  53.2164 185.7497 0001378 104.3717 255.7428 15.08836957 78305,6917.89,95.438,540.708,538.801,0.0
54764.0,STARLINK-5458,PAYLOAD,2024-05-06 04:16:10,15.08863896,0.0001344,53.2163,183.0737,102.4132,257.701,0.0012115,0.00019058,0.0,0 STARLINK-5458,1 54764U 22175G   24127.17789797  .00019058  00000-0  12115-2 0  9999,2 54764  53.2163 183.0737 0001344 102.4132 257.7010 15.08863896 76236,6917.807,95.436,540.602,538.743,0.0
54764.0,STARLINK-5458,PAYLOAD,2024-05-06 10:37:42,15.08876174,0.0001331,53.2164,181.8841,102.6987,257.4154,0.0013578,0.00021409,0.0,0 STARLINK-5458,1 54764U 22175G   24127.44285265  .00021409  00000-0  13578-2 0  9997,2 54764  53.2164 181.8841 0001331 102.6987 257.4154 15.08876174 78438,6917.77,95.435,540.556,538.714,0.0
54764.0,STARLINK-5458,PAYLOAD,2024-05-07 04:06:56,15.08868031,0.0001264,53.2162,178.6115,92.9501,267.1635,0.00080751,0.00012597,0.0,0 STARLINK-5458,1 54764U 22175G   24128.17148769  .00012597  00000-0  80751-3 0  9991,2 54764  53.2162 178.6115 0001264  92.9501 267.1635 15.08868031 76389,6917.795,95.436,540.534,538.785,0.0
54764.0,STARLINK-5458,PAYLOAD,2024-05-07 10:28:29,15.08855204,0.0001213,53.2157,177.4227,93.3973,266.7158,0.00025842,3.829e-05,0.0,0 STARLINK-5458,1 54764U 22175G   24128.43644677  .00003829  00000-0  25842-3 0  9997,2 54764  53.2157 177.4227 0001213  93.3973 266.7158 15.08855204 76424,6917.834,95.437,540.538,538.86,0.0
54764.0,STARLINK-5458,PAYLOAD,2024-05-08 11:54:39,15.08842726,0.0001278,53.2152,172.6659,104.8503,255.263,-4.8779e-05,-1.064e-05,0.0,0 STARLINK-5458,1 54764U 22175G   24129.49629111 -.00001064  00000-0 -48779-4 0  9996,2 54764  53.2152 172.6659 0001278 104.8503 255.2630 15.08842726 76583,6917.872,95.437,540.621,538.853,0.0
54764.0,STARLINK-5458,PAYLOAD,2024-05-08 13:30:02,15.08842832,0.0001263,53.2149,172.3682,104.6864,255.4268,-4.1332e-05,-9.46e-06,0.0,0 STARLINK-5458,1 54764U 22175G   24129.56253084 -.00000946  00000-0 -41332-4 0  9992,2 54764  53.2149 172.3682 0001263 104.6864 255.4268 15.08842832 78752,6917.872,95.437,540.61,538.863,0.0
54764.0,STARLINK-5458,PAYLOAD,2024-05-08 19:51:35,15.08845407,0.0001184,53.216,171.1783,93.8376,266.2751,4.2451e-05,3.88e-06,0.0,0 STARLINK-5458,1 54764U 22175G   24129.82749124  .00000388  00000-0  42451-4 0  9997,2 54764  53.2160 171.1783 0001184  93.8376 266.2751 15.08845407 78795,6917.864,95.437,540.548,538.91,0.0
54764.0,STARLINK-5458,PAYLOAD,2024-05-09 11:45:25,15.08853246,0.0001261,53.2159,168.2053,91.2953,268.8184,0.00019877,2.878e-05,0.0,0 STARLINK-5458,1 54764U 22175G   24130.48988338  .00002878  00000-0  19877-3 0  9994,2 54764  53.2159 168.2053 0001261  91.2953 268.8184 15.08853246 76739,6917.84,95.437,540.577,538.833,0.0
54764.0,STARLINK-5458,PAYLOAD,2024-05-10 08:25:27,15.0884235,0.0001319,53.2144,164.3389,89.0894,271.0249,0.00010871,1.443e-05,0.0,0 STARLINK-5458,1 54764U 22175G   24131.35101244  .00001443  00000-0  10871-3 0  9996,2 54764  53.2144 164.3389 0001319  89.0894 271.0249 15.08842350 76861,6917.873,95.437,540.651,538.826,0.0
54764.0,STARLINK-5458,PAYLOAD,2024-05-10 19:33:09,15.08842636,0.0001457,53.2151,162.2568,87.7462,272.3697,0.00010883,1.445e-05,0.0,0 STARLINK-5458,1 54764U 22175G   24131.81469325  .00001445  00000-0  10883-3 0  9999,2 54764  53.2151 162.2568 0001457  87.7462 272.3697 15.08842636 79090,6917.872,95.437,540.745,538.729,0.0
54764.0,STARLINK-5458,PAYLOAD,2024-05-11 01:54:42,15.08841274,0.000167,53.2156,161.0679,92.5316,267.5867,0.00012445,1.693e-05,0.0,0 STARLINK-5458,1 54764U 22175G   24132.07965955  .00001693  00000-0  12445-3 0  9999,2 54764  53.2156 161.0679 0001670  92.5316 267.5867 15.08841274 76970,6917.876,95.437,540.897,538.586,0.0
54764.0,STARLINK-5458,PAYLOAD,2024-05-11 19:23:56,15.08848584,0.0001721,53.217,157.796,92.4565,267.6625,0.00017566,2.509e-05,0.0,0 STARLINK-5458,1 54764U 22175G   24132.80829282  .00002509  00000-0  17566-3 0  9998,2 54764  53.2170 157.7960 0001721  92.4565 267.6625 15.08848584 79240,6917.854,95.437,540.91,538.529,0.0
54764.0,STARLINK-5458,PAYLOAD,2024-05-12 11:17:49,15.08803433,0.000135,53.2143,154.8266,73.4466,286.6674,-0.00051393,-8.449e-05,0.0,0 STARLINK-5458,1 54764U 22175G   24133.47071613 -.00008449  00000-0 -51393-3 0  9996,2 54764  53.2143 154.8266 0001350  73.4466 286.6674 15.08803433 77184,6917.992,95.44,540.791,538.923,0.0
54764.0,STARLINK-5458,PAYLOAD,2024-05-13 04:47:04,15.08823842,0.0001631,53.2172,151.5524,76.7799,283.3375,0.00012834,1.754e-05,0.0,0 STARLINK-5458,1 54764U 22175G   24134.19936122  .00001754  00000-0  12834-3 0  9998,2 54764  53.2172 151.5524 0001631  76.7799 283.3375 15.08823842 77294,6917.93,95.439,540.923,538.666,0.0
54764.0,STARLINK-5458,PAYLOAD,2024-05-13 11:08:37,15.08831708,0.0001567,53.2154,150.3622,79.7319,280.385,0.00057968,8.948e-05,0.0,0 STARLINK-5458,1 54764U 22175G   24134.46432270  .00008948  00000-0  57968-3 0  9992,2 54764  53.2154 150.3622 0001567  79.7319 280.3850 15.08831708 79498,6917.906,95.438,540.855,538.687,0.0
